CCSDS_OMM_VERS = 2.0
CREATION_DATE  = 
ORIGINATOR     = 

OBJECT_NAME    = SL-16 R/B
OBJECT_ID      = 1998-043G
CENTER_NAME    = EARTH
REF_FRAME      = TEME
TIME_SYSTEM    = UTC
MEAN_ELEMENT_THEORY = SGP/SGP4

EPOCH          = 2026-03-03T11:41:21.857856
MEAN_MOTION    = 14.26048068
ECCENTRICITY   = .0010503
INCLINATION    = 98.8244
RA_OF_ASC_NODE = 15.8070
ARG_OF_PERICENTER = 37.4371
MEAN_ANOMALY   = 322.7538

EPHEMERIS_TYPE = 0
CLASSIFICATION_TYPE = U
NORAD_CAT_ID   = 25400
ELEMENT_SET_NO = 999
REV_AT_EPOCH   = 43810
BSTAR          = .51584E-4
MEAN_MOTION_DOT = .78E-6
MEAN_MOTION_DDOT = 0

CCSDS_OMM_VERS = 2.0
CREATION_DATE  = 
ORIGINATOR     = 

OBJECT_NAME    = SL-16 R/B
OBJECT_ID      = 1998-045B
CENTER_NAME    = EARTH
REF_FRAME      = TEME
TIME_SYSTEM    = UTC
MEAN_ELEMENT_THEORY = SGP/SGP4

EPOCH          = 2026-03-03T11:58:10.228800
MEAN_MOTION    = 14.16189469
ECCENTRICITY   = .0006377
INCLINATION    = 71.0112
RA_OF_ASC_NODE = 194.5921
ARG_OF_PERICENTER = 17.5744
MEAN_ANOMALY   = 342.5599

EPHEMERIS_TYPE = 0
CLASSIFICATION_TYPE = U
NORAD_CAT_ID   = 25407
ELEMENT_SET_NO = 999
REV_AT_EPOCH   = 42622
BSTAR          = -.87667E-4
MEAN_MOTION_DOT = -.221E-5
MEAN_MOTION_DDOT = 0

CCSDS_OMM_VERS = 2.0
CREATION_DATE  = 
ORIGINATOR     = 

OBJECT_NAME    = ISS (ZARYA)
OBJECT_ID      = 1998-067A
CENTER_NAME    = EARTH
REF_FRAME      = TEME
TIME_SYSTEM    = UTC
MEAN_ELEMENT_THEORY = SGP/SGP4

EPOCH          = 2026-03-03T10:43:29.273376
MEAN_MOTION    = 15.48418100
ECCENTRICITY   = .0008211
INCLINATION    = 51.6317
RA_OF_ASC_NODE = 103.2200
ARG_OF_PERICENTER = 152.5429
MEAN_ANOMALY   = 207.5995

EPHEMERIS_TYPE = 0
CLASSIFICATION_TYPE = U
NORAD_CAT_ID   = 25544
ELEMENT_SET_NO = 999
REV_AT_EPOCH   = 55536
BSTAR          = .1818E-3
MEAN_MOTION_DOT = .9386E-4
MEAN_MOTION_DDOT = 0

CCSDS_OMM_VERS = 2.0
CREATION_DATE  = 
ORIGINATOR     = 

OBJECT_NAME    = CZ-4B R/B
OBJECT_ID      = 1999-025C
CENTER_NAME    = EARTH
REF_FRAME      = TEME
TIME_SYSTEM    = UTC
MEAN_ELEMENT_THEORY = SGP/SGP4

EPOCH          = 2026-03-03T02:28:30.715392
MEAN_MOTION    = 14.18263792
ECCENTRICITY   = .003712
INCLINATION    = 98.6640
RA_OF_ASC_NODE = 106.5404
ARG_OF_PERICENTER = 5.6258
MEAN_ANOMALY   = 48.8396

EPHEMERIS_TYPE = 0
CLASSIFICATION_TYPE = U
NORAD_CAT_ID   = 25732
ELEMENT_SET_NO = 999
REV_AT_EPOCH   = 38723
BSTAR          = .56463E-4
MEAN_MOTION_DOT = .74E-6
MEAN_MOTION_DDOT = 0

CCSDS_OMM_VERS = 2.0
CREATION_DATE  = 
ORIGINATOR     = 

OBJECT_NAME    = OKEAN-O
OBJECT_ID      = 1999-039A
CENTER_NAME    = EARTH
REF_FRAME      = TEME
TIME_SYSTEM    = UTC
MEAN_ELEMENT_THEORY = SGP/SGP4

EPOCH          = 2026-03-03T03:54:41.796000
MEAN_MOTION    = 14.80322800
ECCENTRICITY   = .0001453
INCLINATION    = 97.9456
RA_OF_ASC_NODE = 122.1204
ARG_OF_PERICENTER = 71.2203
MEAN_ANOMALY   = 288.9166

EPHEMERIS_TYPE = 0
CLASSIFICATION_TYPE = U
NORAD_CAT_ID   = 25860
ELEMENT_SET_NO = 999
REV_AT_EPOCH   = 43342
BSTAR          = .11112E-3
MEAN_MOTION_DOT = .795E-5
MEAN_MOTION_DDOT = 0

CCSDS_OMM_VERS = 2.0
CREATION_DATE  = 
ORIGINATOR     = 

OBJECT_NAME    = SL-16 R/B
OBJECT_ID      = 1999-039B
CENTER_NAME    = EARTH
REF_FRAME      = TEME
TIME_SYSTEM    = UTC
MEAN_ELEMENT_THEORY = SGP/SGP4

EPOCH          = 2026-03-03T03:34:33.550752
MEAN_MOTION    = 14.81720640
ECCENTRICITY   = .0013453
INCLINATION    = 97.9980
RA_OF_ASC_NODE = 121.2550
ARG_OF_PERICENTER = 279.5676
MEAN_ANOMALY   = 80.4016

EPHEMERIS_TYPE = 0
CLASSIFICATION_TYPE = U
NORAD_CAT_ID   = 25861
ELEMENT_SET_NO = 999
REV_AT_EPOCH   = 43589
BSTAR          = .96997E-4
MEAN_MOTION_DOT = .711E-5
MEAN_MOTION_DDOT = 0

CCSDS_OMM_VERS = 2.0
CREATION_DATE  = 
ORIGINATOR     = 

OBJECT_NAME    = DELTA 2 R/B
OBJECT_ID      = 1999-041E
CENTER_NAME    = EARTH
REF_FRAME      = TEME
TIME_SYSTEM    = UTC
MEAN_ELEMENT_THEORY = SGP/SGP4

EPOCH          = 2026-03-03T01:41:23.443872
MEAN_MOTION    = 14.11813362
ECCENTRICITY   = .0502356
INCLINATION    = 51.7651
RA_OF_ASC_NODE = 327.7179
ARG_OF_PERICENTER = 328.8923
MEAN_ANOMALY   = 28.3138

EPHEMERIS_TYPE = 0
CLASSIFICATION_TYPE = U
NORAD_CAT_ID   = 25876
ELEMENT_SET_NO = 999
REV_AT_EPOCH   = 36209
BSTAR          = .31034E-3
MEAN_MOTION_DOT = .1695E-4
MEAN_MOTION_DDOT = 0

CCSDS_OMM_VERS = 2.0
CREATION_DATE  = 
ORIGINATOR     = 

OBJECT_NAME    = HELIOS 1B
OBJECT_ID      = 1999-064A
CENTER_NAME    = EARTH
REF_FRAME      = TEME
TIME_SYSTEM    = UTC
MEAN_ELEMENT_THEORY = SGP/SGP4

EPOCH          = 2026-03-03T07:46:50.560320
MEAN_MOTION    = 14.87665755
ECCENTRICITY   = .0002509
INCLINATION    = 98.1704
RA_OF_ASC_NODE = 324.3803
ARG_OF_PERICENTER = 83.6747
MEAN_ANOMALY   = 276.4754

EPHEMERIS_TYPE = 0
CLASSIFICATION_TYPE = U
NORAD_CAT_ID   = 25977
ELEMENT_SET_NO = 999
REV_AT_EPOCH   = 68431
BSTAR          = .2788E-3
MEAN_MOTION_DOT = .2479E-4
MEAN_MOTION_DDOT = 0

CCSDS_OMM_VERS = 2.0
CREATION_DATE  = 
ORIGINATOR     = 

OBJECT_NAME    = TERRA
OBJECT_ID      = 1999-068A
CENTER_NAME    = EARTH
REF_FRAME      = TEME
TIME_SYSTEM    = UTC
MEAN_ELEMENT_THEORY = SGP/SGP4

EPOCH          = 2026-03-03T09:55:46.155360
MEAN_MOTION    = 14.61006800
ECCENTRICITY   = .0002276
INCLINATION    = 97.9607
RA_OF_ASC_NODE = 116.0879
ARG_OF_PERICENTER = 166.8432
MEAN_ANOMALY   = 250.4104

EPHEMERIS_TYPE = 0
CLASSIFICATION_TYPE = U
NORAD_CAT_ID   = 25994
ELEMENT_SET_NO = 999
REV_AT_EPOCH   = 39416
BSTAR          = .12285E-3
MEAN_MOTION_DOT = .558E-5
MEAN_MOTION_DDOT = 0

CCSDS_OMM_VERS = 2.0
CREATION_DATE  = 
ORIGINATOR     = 

OBJECT_NAME    = SL-16 R/B
OBJECT_ID      = 2000-006B
CENTER_NAME    = EARTH
REF_FRAME      = TEME
TIME_SYSTEM    = UTC
MEAN_ELEMENT_THEORY = SGP/SGP4

EPOCH          = 2026-03-03T10:36:20.036448
MEAN_MOTION    = 14.15824391
ECCENTRICITY   = .001722
INCLINATION    = 71.0014
RA_OF_ASC_NODE = 110.9753
ARG_OF_PERICENTER = 198.8260
MEAN_ANOMALY   = 161.2228

EPHEMERIS_TYPE = 0
CLASSIFICATION_TYPE = U
NORAD_CAT_ID   = 26070
ELEMENT_SET_NO = 999
REV_AT_EPOCH   = 34767
BSTAR          = .14411E-3
MEAN_MOTION_DOT = .236E-5
MEAN_MOTION_DDOT = 0

CCSDS_OMM_VERS = 2.0
CREATION_DATE  = 
ORIGINATOR     = 

OBJECT_NAME    = TITAN 4B R/B
OBJECT_ID      = 2000-047B
CENTER_NAME    = EARTH
REF_FRAME      = TEME
TIME_SYSTEM    = UTC
MEAN_ELEMENT_THEORY = SGP/SGP4

EPOCH          = 2026-03-03T11:14:08.407968
MEAN_MOTION    = 15.09488579
ECCENTRICITY   = .003799
INCLINATION    = 67.9883
RA_OF_ASC_NODE = 58.0038
ARG_OF_PERICENTER = 42.7873
MEAN_ANOMALY   = 317.6222

EPHEMERIS_TYPE = 0
CLASSIFICATION_TYPE = U
NORAD_CAT_ID   = 26474
ELEMENT_SET_NO = 999
REV_AT_EPOCH   = 39197
BSTAR          = .32463E-3
MEAN_MOTION_DOT = .5169E-4
MEAN_MOTION_DDOT = 0

CCSDS_OMM_VERS = 2.0
CREATION_DATE  = 
ORIGINATOR     = 

OBJECT_NAME    = ENVISAT
OBJECT_ID      = 2002-009A
CENTER_NAME    = EARTH
REF_FRAME      = TEME
TIME_SYSTEM    = UTC
MEAN_ELEMENT_THEORY = SGP/SGP4

EPOCH          = 2026-03-03T12:04:40.176192
MEAN_MOTION    = 14.39034205
ECCENTRICITY   = .0001336
INCLINATION    = 98.3718
RA_OF_ASC_NODE = 16.2483
ARG_OF_PERICENTER = 84.6822
MEAN_ANOMALY   = 28.1006

EPHEMERIS_TYPE = 0
CLASSIFICATION_TYPE = U
NORAD_CAT_ID   = 27386
ELEMENT_SET_NO = 999
REV_AT_EPOCH   = 25828
BSTAR          = .68346E-4
MEAN_MOTION_DOT = .168E-5
MEAN_MOTION_DDOT = 0

